{
  "type": "FeatureCollection",
  "features": [
    {
      "type": "Feature",
      "properties": {
        "norad_id": 66716,
        "name": "FLOCK 4H-13",
        "group": "last-30-days",
        "lat": -46.05136470622504,
        "lon": 73.69639806095489,
        "alt_km": 519.3419870853322,
        "timestamp": "2025-12-20T05:41:48.742041+00:00",
        "meta_object_name": "FLOCK 4H-13",
        "meta_object_id": "2025-276BC",
        "meta_epoch": "2025-12-19T22:00:01.999584",
        "meta_mean_motion": 15.18166326,
        "meta_eccentricity": 0.00016111,
        "meta_inclination": 97.4439,
        "meta_ra_of_asc_node": 65.5855,
        "meta_arg_of_pericenter": 146.0412,
        "meta_mean_anomaly": 215.9701,
        "meta_ephemeris_type": 0,
        "meta_classification_type": "U",
        "meta_norad_cat_id": 66716,
        "meta_element_set_no": 999,
        "meta_rev_at_epoch": 166,
        "meta_bstar": -0.0012753376,
        "meta_mean_motion_dot": -0.00026007,
        "meta_mean_motion_ddot": 0,
        "tle_line1": "1 66716U 25276BC  25353.91668981 -.00026007  00000+0 -12753-2 0  9990",
        "tle_line2": "2 66716  97.4439  65.5855 0001611 146.0412 215.9701 15.18166326  1662"
      },
      "geometry": {
        "type": "Point",
        "coordinates": [
          73.69639806095489,
          -46.05136470622504
        ]
      }
    },
    {
      "type": "Feature",
      "properties": {
        "norad_id": 66717,
        "name": "FLOCK 4H-14",
        "group": "last-30-days",
        "lat": -36.86026285620739,
        "lon": 71.53395410869993,
        "alt_km": 518.4110076689258,
        "timestamp": "2025-12-20T05:41:48.742052+00:00",
        "meta_object_name": "FLOCK 4H-14",
        "meta_object_id": "2025-276BD",
        "meta_epoch": "2025-12-19T22:00:01.999584",
        "meta_mean_motion": 15.18318656,
        "meta_eccentricity": 0.00014761,
        "meta_inclination": 97.4441,
        "meta_ra_of_asc_node": 65.5927,
        "meta_arg_of_pericenter": 139.208,
        "meta_mean_anomaly": 231.9784,
        "meta_ephemeris_type": 0,
        "meta_classification_type": "U",
        "meta_norad_cat_id": 66717,
        "meta_element_set_no": 999,
        "meta_rev_at_epoch": 130,
        "meta_bstar": -0.0012239145,
        "meta_mean_motion_dot": -0.00025074,
        "meta_mean_motion_ddot": 0,
        "tle_line1": "1 66717U 25276BD  25353.91668981 -.00025074  00000+0 -12239-2 0  9993",
        "tle_line2": "2 66717  97.4441  65.5927 0001476 139.2080 231.9784 15.18318656  1305"
      },
      "geometry": {
        "type": "Point",
        "coordinates": [
          71.53395410869993,
          -36.86026285620739
        ]
      }
    },
    {
      "type": "Feature",
      "properties": {
        "norad_id": 66718,
        "name": "FLOCK 4H-15",
        "group": "last-30-days",
        "lat": -52.5642202604104,
        "lon": -123.96698772556385,
        "alt_km": 520.441926872044,
        "timestamp": "2025-12-20T05:41:48.742064+00:00",
        "meta_object_name": "FLOCK 4H-15",
        "meta_object_id": "2025-276BE",
        "meta_epoch": "2025-12-19T22:00:01.999584",
        "meta_mean_motion": 15.17087831,
        "meta_eccentricity": 0.00029382,
        "meta_inclination": 97.4437,
        "meta_ra_of_asc_node": 65.5515,
        "meta_arg_of_pericenter": 285.3717,
        "meta_mean_anomaly": 357.5057,
        "meta_ephemeris_type": 0,
        "meta_classification_type": "U",
        "meta_norad_cat_id": 66718,
        "meta_element_set_no": 999,
        "meta_rev_at_epoch": 222,
        "meta_bstar": -0.0012062866,
        "meta_mean_motion_dot": -0.00023866,
        "meta_mean_motion_ddot": 0,
        "tle_line1": "1 66718U 25276BE  25353.91668981 -.00023866  00000+0 -12063-2 0  9996",
        "tle_line2": "2 66718  97.4437  65.5515 0002938 285.3717 357.5057 15.17087831  2225"
      },
      "geometry": {
        "type": "Point",
        "coordinates": [
          -123.96698772556385,
          -52.5642202604104
        ]
      }
    },
    {
      "type": "Feature",
      "properties": {
        "norad_id": 66719,
        "name": "FLOCK 4H-16",
        "group": "last-30-days",
        "lat": -60.490763154656676,
        "lon": -127.4846525045087,
        "alt_km": 519.7523466312659,
        "timestamp": "2025-12-20T05:41:48.742074+00:00",
        "meta_object_name": "FLOCK 4H-16",
        "meta_object_id": "2025-276BF",
        "meta_epoch": "2025-12-19T22:00:01.999584",
        "meta_mean_motion": 15.17201449,
        "meta_eccentricity": 0.00028015,
        "meta_inclination": 97.4453,
        "meta_ra_of_asc_node": 65.5593,
        "meta_arg_of_pericenter": 265.0642,
        "meta_mean_anomaly": 25.8423,
        "meta_ephemeris_type": 0,
        "meta_classification_type": "U",
        "meta_norad_cat_id": 66719,
        "meta_element_set_no": 999,
        "meta_rev_at_epoch": 263,
        "meta_bstar": -0.0011781108,
        "meta_mean_motion_dot": -0.00023387,
        "meta_mean_motion_ddot": 0,
        "tle_line1": "1 66719U 25276BF  25353.91668981 -.00023387  00000+0 -11781-2 0  9991",
        "tle_line2": "2 66719  97.4453  65.5593 0002801 265.0642  25.8423 15.17201449  2631"
      },
      "geometry": {
        "type": "Point",
        "coordinates": [
          -127.4846525045087,
          -60.490763154656676
        ]
      }
    },
    {
      "type": "Feature",
      "properties": {
        "norad_id": 66720,
        "name": "FLOCK 4H-17",
        "group": "last-30-days",
        "lat": -55.66398520481893,
        "lon": 76.94095887747963,
        "alt_km": 519.3983566355346,
        "timestamp": "2025-12-20T05:41:48.742085+00:00",
        "meta_object_name": "FLOCK 4H-17",
        "meta_object_id": "2025-276BG",
        "meta_epoch": "2025-12-19T22:00:01.999584",
        "meta_mean_motion": 15.18039019,
        "meta_eccentricity": 0.00024293,
        "meta_inclination": 97.4454,
        "meta_ra_of_asc_node": 65.5881,
        "meta_arg_of_pericenter": 197.8369,
        "meta_mean_anomaly": 154.4556,
        "meta_ephemeris_type": 0,
        "meta_classification_type": "U",
        "meta_norad_cat_id": 66720,
        "meta_element_set_no": 999,
        "meta_rev_at_epoch": 130,
        "meta_bstar": -0.0012463609,
        "meta_mean_motion_dot": -0.00025329,
        "meta_mean_motion_ddot": 0,
        "tle_line1": "1 66720U 25276BG  25353.91668981 -.00025329  00000+0 -12464-2 0  9990",
        "tle_line2": "2 66720  97.4454  65.5881 0002429 197.8369 154.4556 15.18039019  1300"
      },
      "geometry": {
        "type": "Point",
        "coordinates": [
          76.94095887747963,
          -55.66398520481893
        ]
      }
    },
    {
      "type": "Feature",
      "properties": {
        "norad_id": 66721,
        "name": "FLOCK 4H-18",
        "group": "last-30-days",
        "lat": -55.11603195670322,
        "lon": -124.94805768023181,
        "alt_km": 520.976142017752,
        "timestamp": "2025-12-20T05:41:48.742094+00:00",
        "meta_object_name": "FLOCK 4H-18",
        "meta_object_id": "2025-276BH",
        "meta_epoch": "2025-12-19T22:00:01.999584",
        "meta_mean_motion": 15.17120829,
        "meta_eccentricity": 0.00023749,
        "meta_inclination": 97.4395,
        "meta_ra_of_asc_node": 65.5395,
        "meta_arg_of_pericenter": 301.6217,
        "meta_mean_anomaly": 343.8358,
        "meta_ephemeris_type": 0,
        "meta_classification_type": "U",
        "meta_norad_cat_id": 66721,
        "meta_element_set_no": 999,
        "meta_rev_at_epoch": 263,
        "meta_bstar": -0.0011854702,
        "meta_mean_motion_dot": -0.00023477,
        "meta_mean_motion_ddot": 0,
        "tle_line1": "1 66721U 25276BH  25353.91668981 -.00023477  00000+0 -11855-2 0  9996",
        "tle_line2": "2 66721  97.4395  65.5395 0002374 301.6217 343.8358 15.17120829  2631"
      },
      "geometry": {
        "type": "Point",
        "coordinates": [
          -124.94805768023181,
          -55.11603195670322
        ]
      }
    },
    {
      "type": "Feature",
      "properties": {
        "norad_id": 66722,
        "name": "FLOCK 4H-19",
        "group": "last-30-days",
        "lat": -42.08902064960739,
        "lon": 72.66945033135136,
        "alt_km": 519.4071598430173,
        "timestamp": "2025-12-20T05:41:48.742105+00:00",
        "meta_object_name": "FLOCK 4H-19",
        "meta_object_id": "2025-276BJ",
        "meta_epoch": "2025-12-19T22:00:01.999584",
        "meta_mean_motion": 15.18211815,
        "meta_eccentricity": 0.00022536,
        "meta_inclination": 97.44,
        "meta_ra_of_asc_node": 65.5756,
        "meta_arg_of_pericenter": 160.1932,
        "meta_mean_anomaly": 205.7946,
        "meta_ephemeris_type": 0,
        "meta_classification_type": "U",
        "meta_norad_cat_id": 66722,
        "meta_element_set_no": 999,
        "meta_rev_at_epoch": 435,
        "meta_bstar": -0.0012127493,
        "meta_mean_motion_dot": -0.00024771,
        "meta_mean_motion_ddot": 0,
        "tle_line1": "1 66722U 25276BJ  25353.91668981 -.00024771  00000+0 -12127-2 0  9998",
        "tle_line2": "2 66722  97.4400  65.5756 0002253 160.1932 205.7946 15.18211815  4355"
      },
      "geometry": {
        "type": "Point",
        "coordinates": [
          72.66945033135136,
          -42.08902064960739
        ]
      }
    }
  ]
}